start=new Date('2022-06-28T00:00:00.000Z').valueOf();
sats=[{"RCS_SIZE":"LARGE","MEAN_ELEMENT_THEORY":"SGP4","PERIAPSIS":"437.527","MEAN_MOTION_DOT":"0.00000614","BSTAR":"0.00002358000000","APOAPSIS":"441.842","OBJECT_NAME":"STARLINK-1898","TLE_LINE2":"2 46745  53.0507 211.1174 0003164  21.0185 339.0949 15.42178032 93806","REV_AT_EPOCH":"9380","TIME_SYSTEM":"UTC","CENTER_NAME":"EARTH","EPOCH":"2022-06-27T09:06:30.871008","ECCENTRICITY":"0.00031640","CLASSIFICATION_TYPE":"U","MEAN_MOTION_DDOT":"0.0000000000000","MEAN_MOTION":"15.42178032","COUNTRY_CODE":"US","EPHEMERIS_TYPE":"0","SITE":"AFETR","GP_ID":"206961986","INCLINATION":"53.0507","MEAN_ANOMALY":"339.0949","PERIOD":"93.374","RA_OF_ASC_NODE":"211.1174","TLE_LINE1":"1 46745U 20074G   22178.37952397  .00000614  00000-0  23580-4 0  9997","ELEMENT_SET_NO":"999","SEMIMAJOR_AXIS":"6817.820","NORAD_CAT_ID":"46745","DECAY_DATE":null,"REF_FRAME":"TEME","OBJECT_ID":"2020-074G","LAUNCH_DATE":"2020-10-24","FILE":"3503902","ARG_OF_PERICENTER":"21.0185","OBJECT_TYPE":"PAYLOAD"},{"OBJECT_TYPE":"PAYLOAD","ARG_OF_PERICENTER":"55.0230","FILE":"3504144","LAUNCH_DATE":"2020-10-24","OBJECT_ID":"2020-074H","DECAY_DATE":null,"REF_FRAME":"TEME","NORAD_CAT_ID":"46746","SEMIMAJOR_AXIS":"6925.357","ELEMENT_SET_NO":"999","TLE_LINE1":"1 46746U 20074H   22178.67227816 -.00000212  00000-0  46472-5 0  9993","RA_OF_ASC_NODE":"266.5816","MEAN_ANOMALY":"305.0917","PERIOD":"95.592","INCLINATION":"53.0546","GP_ID":"206991284","SITE":"AFETR","EPHEMERIS_TYPE":"0","COUNTRY_CODE":"US","MEAN_MOTION":"15.06397354","MEAN_MOTION_DDOT":"0.0000000000000","ECCENTRICITY":"0.00016840","CLASSIFICATION_TYPE":"U","EPOCH":"2022-06-27T16:08:04.833024","CENTER_NAME":"EARTH","TIME_SYSTEM":"UTC","REV_AT_EPOCH":"9304","TLE_LINE2":"2 46746  53.0546 266.5816 0001684  55.0230 305.0917 15.06397354 93044","OBJECT_NAME":"STARLINK-1905","APOAPSIS":"548.388","BSTAR":"0.00000464720000","MEAN_MOTION_DOT":"-0.00000212","PERIAPSIS":"546.055","MEAN_ELEMENT_THEORY":"SGP4","RCS_SIZE":"LARGE"},{"ARG_OF_PERICENTER":"71.1887","OBJECT_TYPE":"PAYLOAD","FILE":"3504144","LAUNCH_DATE":"2020-10-24","OBJECT_ID":"2020-074J","DECAY_DATE":null,"REF_FRAME":"TEME","NORAD_CAT_ID":"46747","ELEMENT_SET_NO":"999","SEMIMAJOR_AXIS":"6925.367","TLE_LINE1":"1 46747U 20074J   22178.65385205  .00000057  00000-0  22697-4 0  9997","RA_OF_ASC_NODE":"266.6646","PERIOD":"95.593","MEAN_ANOMALY":"288.9251","INCLINATION":"53.0550","GP_ID":"206991530","EPHEMERIS_TYPE":"0","SITE":"AFETR","MEAN_MOTION":"15.06394129","COUNTRY_CODE":"US","MEAN_MOTION_DDOT":"0.0000000000000","CLASSIFICATION_TYPE":"U","ECCENTRICITY":"0.00013710","EPOCH":"2022-06-27T15:41:32.817120","TIME_SYSTEM":"UTC","CENTER_NAME":"EARTH","TLE_LINE2":"2 46747  53.0550 266.6646 0001371  71.1887 288.9251 15.06394129 93049","REV_AT_EPOCH":"9304","OBJECT_NAME":"STARLINK-1908","BSTAR":"0.00002269700000","APOAPSIS":"548.181","PERIAPSIS":"546.282","MEAN_MOTION_DOT":"0.00000057","RCS_SIZE":"LARGE","MEAN_ELEMENT_THEORY":"SGP4"},{"TLE_LINE2":"2 46748  53.0539 267.2264 0001211  75.4834 284.6289 15.06402358 93028","REV_AT_EPOCH":"9302","TIME_SYSTEM":"UTC","CENTER_NAME":"EARTH","EPOCH":"2022-06-27T12:41:04.556544","RCS_SIZE":"LARGE","MEAN_ELEMENT_THEORY":"SGP4","PERIAPSIS":"546.368","MEAN_MOTION_DOT":"-0.00001361","BSTAR":"-0.00007247400000","APOAPSIS":"548.045","OBJECT_NAME":"STARLINK-1910","INCLINATION":"53.0539","GP_ID":"206960735","PERIOD":"95.592","MEAN_ANOMALY":"284.6289","ECCENTRICITY":"0.00012110","CLASSIFICATION_TYPE":"U","MEAN_MOTION_DDOT":"0.0000000000000","MEAN_MOTION":"15.06402358","COUNTRY_CODE":"US","EPHEMERIS_TYPE":"0","SITE":"AFETR","OBJECT_ID":"2020-074K","LAUNCH_DATE":"2020-10-24","RA_OF_ASC_NODE":"267.2264","TLE_LINE1":"1 46748U 20074K   22178.52852496 -.00001361  00000-0 -72474-4 0  9994","SEMIMAJOR_AXIS":"6925.341","ELEMENT_SET_NO":"999","NORAD_CAT_ID":"46748","DECAY_DATE":null,"REF_FRAME":"TEME","ARG_OF_PERICENTER":"75.4834","OBJECT_TYPE":"PAYLOAD","FILE":"3503902"},{"GP_ID":"206991032","INCLINATION":"53.0545","MEAN_ANOMALY":"293.4907","PERIOD":"95.593","MEAN_MOTION_DDOT":"0.0000000000000","ECCENTRICITY":"0.00014210","CLASSIFICATION_TYPE":"U","SITE":"AFETR","EPHEMERIS_TYPE":"0","COUNTRY_CODE":"US","MEAN_MOTION":"15.06393271","REV_AT_EPOCH":"9304","TLE_LINE2":"2 46749  53.0545 266.6013 0001421  66.6231 293.4907 15.06393271 93047","EPOCH":"2022-06-27T16:02:46.264128","TIME_SYSTEM":"UTC","CENTER_NAME":"EARTH","MEAN_MOTION_DOT":"-0.00000100","PERIAPSIS":"546.250","MEAN_ELEMENT_THEORY":"SGP4","RCS_SIZE":"LARGE","OBJECT_NAME":"STARLINK-1911","APOAPSIS":"548.218","BSTAR":"0.00001220900000","OBJECT_TYPE":"PAYLOAD","ARG_OF_PERICENTER":"66.6231","FILE":"3504144","LAUNCH_DATE":"2020-10-24","OBJECT_ID":"2020-074L","ELEMENT_SET_NO":"999","SEMIMAJOR_AXIS":"6925.369","RA_OF_ASC_NODE":"266.6013","TLE_LINE1":"1 46749U 20074L   22178.66859102 -.00000100  00000-0  12209-4 0  9990","REF_FRAME":"TEME","DECAY_DATE":null,"NORAD_CAT_ID":"46749"},{"RA_OF_ASC_NODE":"267.2074","TLE_LINE1":"1 46751U 20074N   22178.53220357 -.00000062  00000-0  14757-4 0  9990","SEMIMAJOR_AXIS":"6925.347","ELEMENT_SET_NO":"999","NORAD_CAT_ID":"46751","REF_FRAME":"TEME","DECAY_DATE":null,"OBJECT_ID":"2020-074N","LAUNCH_DATE":"2020-10-24","FILE":"3504095","ARG_OF_PERICENTER":"86.1837","OBJECT_TYPE":"PAYLOAD","RCS_SIZE":"LARGE","MEAN_ELEMENT_THEORY":"SGP4","PERIAPSIS":"546.436","MEAN_MOTION_DOT":"-0.00000062","BSTAR":"0.00001475700000","APOAPSIS":"547.987","OBJECT_NAME":"STARLINK-1920","TLE_LINE2":"2 46751  53.0553 267.2074 0001120  86.1837 273.9280 15.06400605 93034","REV_AT_EPOCH":"9303","CENTER_NAME":"EARTH","TIME_SYSTEM":"UTC","EPOCH":"2022-06-27T12:46:22.388448","CLASSIFICATION_TYPE":"U","ECCENTRICITY":"0.00011200","MEAN_MOTION_DDOT":"0.0000000000000","MEAN_MOTION":"15.06400605","COUNTRY_CODE":"US","EPHEMERIS_TYPE":"0","SITE":"AFETR","INCLINATION":"53.0553","GP_ID":"206969055","PERIOD":"95.592","MEAN_ANOMALY":"273.9280"},{"GP_ID":"206960985","INCLINATION":"53.0545","PERIOD":"95.593","MEAN_ANOMALY":"310.1415","MEAN_MOTION_DDOT":"0.0000000000000","ECCENTRICITY":"0.00016250","CLASSIFICATION_TYPE":"U","SITE":"AFETR","EPHEMERIS_TYPE":"0","COUNTRY_CODE":"US","MEAN_MOTION":"15.06386760","REV_AT_EPOCH":"9301","TLE_LINE2":"2 46752  53.0545 267.4385 0001625  49.9717 310.1415 15.06386760 93014","EPOCH":"2022-06-27T11:26:46.679424","CENTER_NAME":"EARTH","TIME_SYSTEM":"UTC","MEAN_MOTION_DOT":"0.00000605","PERIAPSIS":"546.129","MEAN_ELEMENT_THEORY":"SGP4","RCS_SIZE":"LARGE","OBJECT_NAME":"STARLINK-1921","APOAPSIS":"548.380","BSTAR":"0.00005955100000","OBJECT_TYPE":"PAYLOAD","ARG_OF_PERICENTER":"49.9717","FILE":"3503902","LAUNCH_DATE":"2020-10-24","OBJECT_ID":"2020-074P","SEMIMAJOR_AXIS":"6925.389","ELEMENT_SET_NO":"999","RA_OF_ASC_NODE":"267.4385","TLE_LINE1":"1 46752U 20074P   22178.47692916  .00000605  00000-0  59551-4 0  9991","REF_FRAME":"TEME","DECAY_DATE":null,"NORAD_CAT_ID":"46752"},{"MEAN_ANOMALY":"293.3999","PERIOD":"95.593","GP_ID":"206990284","INCLINATION":"53.0551","COUNTRY_CODE":"US","MEAN_MOTION":"15.06393630","SITE":"AFETR","EPHEMERIS_TYPE":"0","CLASSIFICATION_TYPE":"U","ECCENTRICITY":"0.00011300","MEAN_MOTION_DDOT":"0.0000000000000","CENTER_NAME":"EARTH","TIME_SYSTEM":"UTC","EPOCH":"2022-06-27T15:25:37.382592","REV_AT_EPOCH":"9304","TLE_LINE2":"2 46753  53.0551 266.7012 0001130  66.7109 293.3999 15.06393630 93040","APOAPSIS":"548.016","BSTAR":"0.00004333200000","OBJECT_NAME":"STARLINK-1922","MEAN_ELEMENT_THEORY":"SGP4","RCS_SIZE":"LARGE","MEAN_MOTION_DOT":"0.00000364","PERIAPSIS":"546.451","OBJECT_TYPE":"PAYLOAD","ARG_OF_PERICENTER":"66.7109","FILE":"3504144","OBJECT_ID":"2020-074Q","LAUNCH_DATE":"2020-10-24","NORAD_CAT_ID":"46753","DECAY_DATE":null,"REF_FRAME":"TEME","TLE_LINE1":"1 46753U 20074Q   22178.64279378  .00000364  00000-0  43332-4 0  9996","RA_OF_ASC_NODE":"266.7012","SEMIMAJOR_AXIS":"6925.368","ELEMENT_SET_NO":"999"},{"NORAD_CAT_ID":"46754","DECAY_DATE":null,"REF_FRAME":"TEME","TLE_LINE1":"1 46754U 20074R   22178.65016557 -.00002061  00000-0 -11950-3 0  9994","RA_OF_ASC_NODE":"266.6640","ELEMENT_SET_NO":"999","SEMIMAJOR_AXIS":"6925.374","OBJECT_ID":"2020-074R","LAUNCH_DATE":"2020-10-24","FILE":"3504144","ARG_OF_PERICENTER":"74.7839","OBJECT_TYPE":"PAYLOAD","BSTAR":"-0.00011950000000","APOAPSIS":"548.323","OBJECT_NAME":"STARLINK-1923","RCS_SIZE":"LARGE","MEAN_ELEMENT_THEORY":"SGP4","PERIAPSIS":"546.155","MEAN_MOTION_DOT":"-0.00002061","CENTER_NAME":"EARTH","TIME_SYSTEM":"UTC","EPOCH":"2022-06-27T15:36:14.305248","TLE_LINE2":"2 46754  53.0544 266.6640 0001565  74.7839 285.3323 15.06391632 93042","REV_AT_EPOCH":"9304","MEAN_MOTION":"15.06391632","COUNTRY_CODE":"US","EPHEMERIS_TYPE":"0","SITE":"AFETR","ECCENTRICITY":"0.00015650","CLASSIFICATION_TYPE":"U","MEAN_MOTION_DDOT":"0.0000000000000","PERIOD":"95.593","MEAN_ANOMALY":"285.3323","GP_ID":"206990534","INCLINATION":"53.0544"},{"MEAN_MOTION_DOT":"-0.00000319","PERIAPSIS":"546.080","MEAN_ELEMENT_THEORY":"SGP4","RCS_SIZE":"LARGE","OBJECT_NAME":"STARLINK-1924","APOAPSIS":"548.338","BSTAR":"-0.00000252460000","REV_AT_EPOCH":"9297","TLE_LINE2":"2 46755  53.0542 271.6424 0001630  55.2567 304.8575 15.06401550 92970","EPOCH":"2022-06-27T15:43:31.478016","CENTER_NAME":"EARTH","TIME_SYSTEM":"UTC","MEAN_MOTION_DDOT":"0.0000000000000","CLASSIFICATION_TYPE":"U","ECCENTRICITY":"0.00016300","SITE":"AFETR","EPHEMERIS_TYPE":"0","COUNTRY_CODE":"US","MEAN_MOTION":"15.06401550","GP_ID":"206991285","INCLINATION":"53.0542","PERIOD":"95.592","MEAN_ANOMALY":"304.8575","SEMIMAJOR_AXIS":"6925.344","ELEMENT_SET_NO":"999","TLE_LINE1":"1 46755U 20074S   22178.65522544 -.00000319  00000-0 -25246-5 0  9992","RA_OF_ASC_NODE":"271.6424","REF_FRAME":"TEME","DECAY_DATE":null,"NORAD_CAT_ID":"46755","LAUNCH_DATE":"2020-10-24","OBJECT_ID":"2020-074S","FILE":"3504144","OBJECT_TYPE":"PAYLOAD","ARG_OF_PERICENTER":"55.2567"}];
